NORAD_CAT_ID,OBJECT_NAME,OBJECT_TYPE,EPOCH,MEAN_MOTION,ECCENTRICITY,INCLINATION,RA_OF_ASC_NODE,ARG_OF_PERICENTER,MEAN_ANOMALY,BSTAR,MEAN_MOTION_DOT,MEAN_MOTION_DDOT,TLE_LINE0,TLE_LINE1,TLE_LINE2,SEMIMAJOR_AXIS,PERIOD,APOGEE,PERIGEE,DECAYED
53897.0,STARLINK-5035,PAYLOAD,2022-10-24 20:00:01,15.73129166,0.0001264,53.2146,105.1958,103.983,141.7572,0.00056158,0.00078695,0.0,0 STARLINK-5035,1 53897U 22119M   22297.83334491  .00078695  00000-0  56158-3 0  9997,2 53897  53.2146 105.1958 0001264 103.9830 141.7572 15.73129166  5138,6728.097,91.537,350.81300000000016,349.112,0.0
53897.0,STARLINK-5035,PAYLOAD,2022-10-24 22:00:00,15.73124545,0.0001205,53.2143,104.7836,103.6255,254.3286,0.00072841,0.0010253,0.0,0 STARLINK-5035,1 53897U 22119M   22297.91667824  .00102530  00000-0  72841-3 0  9998,2 53897  53.2143 104.7836 0001205 103.6255 254.3286 15.73124545  1302,6728.11,91.538,350.786,349.165,0.0
53897.0,STARLINK-5035,PAYLOAD,2022-10-25 04:00:00,15.73211419,0.0001118,53.2142,103.5449,114.3033,220.2989,-0.0002819999999999,-0.00040027,0.0,0 STARLINK-5035,1 53897U 22119M   22298.16667824 -.00040027  00000-0 -28200-3 0  9990,2 53897  53.2142 103.5449 0001118 114.3033 220.2989 15.73211419  5183,6727.863,91.533,350.48,348.975,0.0
53897.0,STARLINK-5035,PAYLOAD,2022-10-25 14:00:01,15.73174585,9.83e-05,53.2146,101.483,120.1146,55.6328,0.0002032,0.00027962,0.0,0 STARLINK-5035,1 53897U 22119M   22298.58334491  .00027962  00000-0  20320-3 0  9993,2 53897  53.2146 101.4830 0000983 120.1146  55.6328 15.73174585  1306,6727.968000000003,91.535,350.494,349.171,0.0
53897.0,STARLINK-5035,PAYLOAD,2022-10-25 20:00:01,15.73173511,8.71e-05,53.2148,100.2473,105.3604,47.0698,0.00054098,0.00075904,0.0,0 STARLINK-5035,1 53897U 22119M   22298.83334491  .00075904  00000-0  54098-3 0  9999,2 53897  53.2148 100.2473 0000871 105.3604  47.0698 15.73173511  5293,6727.971,91.535,350.422,349.25,0.0
53897.0,STARLINK-5035,PAYLOAD,2022-10-25 22:00:01,15.73187822,8.09e-05,53.2147,99.8349,103.5847,161.1386,0.00044732,0.00062594,0.0,0 STARLINK-5035,1 53897U 22119M   22298.91668981  .00062594  00000-0  44732-3 0  9997,2 53897  53.2147  99.8349 0000809 103.5847 161.1386 15.73187822  1307,6727.93,91.534,350.339,349.251,0.0
53897.0,STARLINK-5035,PAYLOAD,2022-10-26 04:00:00,15.73233369,9.53e-05,53.215,98.5962,107.8713,133.4889,-0.00037967,-0.00053639,0.0,0 STARLINK-5035,1 53897U 22119M   22299.16667824 -.00053639  00000-0 -37967-3 0  9994,2 53897  53.2150  98.5962 0000953 107.8713 133.4889 15.73233369  5343,6727.8,91.531,350.306,349.024,0.0
53897.0,STARLINK-5035,PAYLOAD,2022-10-26 14:00:01,15.73246878,0.0001,53.2152,96.5344,104.192,338.3388,-0.00017091,-0.00024583,0.0,0 STARLINK-5035,1 53897U 22119M   22299.58334491 -.00024583  00000-0 -17091-3 0  9993,2 53897  53.2152  96.5344 0001000 104.1920 338.3388 15.73246878  5418,6727.762,91.53,350.2990000000001,348.954,0.0
53897.0,STARLINK-5035,PAYLOAD,2022-10-26 22:00:00,15.73191496,8.09e-05,53.2148,94.8861,90.5628,80.9541,0.00038305,0.00053461,0.0,0 STARLINK-5035,1 53897U 22119M   22299.91667824  .00053461  00000-0  38305-3 0  9995,2 53897  53.2148  94.8861 0000809  90.5628  80.9541 15.73191496  1307,6727.919,91.534,350.329,349.24,0.0
53897.0,STARLINK-5035,PAYLOAD,2022-10-27 14:00:01,15.73257262,9.74e-05,53.2153,91.5857,95.9771,253.514,-0.00014391,-0.00020815,0.0,0 STARLINK-5035,1 53897U 22119M   22300.58335648 -.00020815  00000-0 -14391-3 0  9995,2 53897  53.2153  91.5857 0000974  95.9771 253.5140 15.73257262  5562,6727.732,91.53,350.25199999999984,348.94199999999995,0.0
53897.0,STARLINK-5035,PAYLOAD,2022-10-27 22:00:00,15.73240759,9.88e-05,53.2153,89.9373,80.1887,358.2341,-3.783e-05,-5.934e-05,0.0,0 STARLINK-5035,1 53897U 22119M   22300.91667824 -.00005934  00000-0 -37830-4 0  9995,2 53897  53.2153  89.9373 0000988  80.1887 358.2341 15.73240759  1302,6727.779,91.531,350.309,348.97900000000016,0.0
53897.0,STARLINK-5035,PAYLOAD,2022-10-28 14:00:01,15.73200196,0.0001072999999999,53.2159,86.6372,82.81700000000002,173.5892,0.00013516,0.0001839,0.0,0 STARLINK-5035,1 53897U 22119M   22301.58335648  .00018390  00000-0  13516-3 0  9997,2 53897  53.2159  86.6372 0001073  82.8170 173.5892 15.73200196  1301,6727.895,91.533,350.482,349.038,0.0
53897.0,STARLINK-5035,PAYLOAD,2022-10-28 20:00:01,15.73215273,0.0001075,53.2158,85.4014,69.89,163.1525,-0.00019875,-0.00028436,0.0,0 STARLINK-5035,1 53897U 22119M   22301.83334491 -.00028436  00000-0 -19875-3 0  9998,2 53897  53.2158  85.4014 0001075  69.8900 163.1525 15.73215273  5762,6727.852,91.532,350.44,348.99300000000005,0.0
53897.0,STARLINK-5035,PAYLOAD,2022-10-28 22:00:01,15.73220905,0.000103,53.2154,84.9887,66.9241,278.4184,-0.00040977,-0.00057784,0.0,0 STARLINK-5035,1 53897U 22119M   22301.91668981 -.00057784  00000-0 -40977-3 0  9996,2 53897  53.2154  84.9887 0001030  66.9241 278.4184 15.73220905  1302,6727.8359999999975,91.532,350.394,349.0080000000001,0.0
53897.0,STARLINK-5035,PAYLOAD,2022-10-29 12:00:00,15.73151508,0.0001169,53.217,82.08200000000002,78.9241,331.847,0.00062404,0.00087695,0.0,0 STARLINK-5035,1 53897U 22119M   22302.50001157  .00087695  00000-0  62404-3 0  9999,2 53897  53.2170  82.0820 0001169  78.9241 331.8470 15.73151508  1306,6728.033,91.536,350.685,349.112,0.0
53897.0,STARLINK-5035,PAYLOAD,2022-10-29 22:00:01,15.73196895,0.0001161999999999,53.2157,80.0404,63.1657,188.9357,-8.7052e-05,-0.00012816,0.0,0 STARLINK-5035,1 53897U 22119M   22302.91668981 -.00012816  00000-0 -87052-4 0  9990,2 53897  53.2157  80.0404 0001162  63.1657 188.9357 15.73196895  1300,6727.904,91.533,350.551,348.987,0.0
53897.0,STARLINK-5035,PAYLOAD,2022-10-30 00:00:00,15.73215282,0.0001200999999999,53.2159,79.6276,65.6184,298.6416,-0.00038198,-0.0005392,0.0,0 STARLINK-5035,1 53897U 22119M   22303.00001157 -.00053920  00000-0 -38198-3 0  9994,2 53897  53.2159  79.6276 0001201  65.6184 298.6416 15.73215282  5940,6727.852,91.532,350.525,348.909,0.0
53897.0,STARLINK-5035,PAYLOAD,2022-10-30 14:00:01,15.73194028,0.0001185,53.2162,76.741,63.5212,6.3471,-4.588e-05,-7.051e-05,0.0,0 STARLINK-5035,1 53897U 22119M   22303.58334491 -.00007051  00000-0 -45880-4 0  9998,2 53897  53.2162  76.7410 0001185  63.5212   6.3471 15.73194028  1307,6727.9119999999975,91.534,350.574,348.98,0.0
53897.0,STARLINK-5035,PAYLOAD,2022-10-30 22:00:01,15.73198732,0.0001161999999999,53.2156,75.0919,50.2271,108.6266,-0.0001756,-0.00025188,0.0,0 STARLINK-5035,1 53897U 22119M   22303.91668981 -.00025188  00000-0 -17560-3 0  9993,2 53897  53.2156  75.0919 0001162  50.2271 108.6266 15.73198732  1303,6727.899,91.533,350.546,348.982,0.0
53897.0,STARLINK-5035,PAYLOAD,2022-10-31 14:00:01,15.73238023,0.0001137,53.2157,71.7927,51.9204,284.6634,-0.00042785,-0.00060333,0.0,0 STARLINK-5035,1 53897U 22119M   22304.58334491 -.00060333  00000-0 -42785-3 0  9991,2 53897  53.2157  71.7927 0001137  51.9204 284.6634 15.73238023  1304,6727.7869999999975,91.531,350.417,348.88699999999994,0.0
53897.0,STARLINK-5035,PAYLOAD,2022-10-31 20:00:01,15.73185319,0.0001217,53.2158,70.5563,40.8316,272.5434,0.00042388,0.00059252,0.0,0 STARLINK-5035,1 53897U 22119M   22304.83335648  .00059252  00000-0  42388-3 0  9999,2 53897  53.2158  70.5563 0001217  40.8316 272.5434 15.73185319  6238,6727.937,91.534,350.621,348.983,0.0
53897.0,STARLINK-5035,PAYLOAD,2022-10-31 22:00:01,15.73227875,0.0001248,53.2157,70.1434,41.4866,24.1101,-0.00017988,-0.00025817,0.0,0 STARLINK-5035,1 53897U 22119M   22304.91668981 -.00025817  00000-0 -17988-3 0  9997,2 53897  53.2157  70.1434 0001248  41.4866  24.1101 15.73227875  1300,6727.816,91.532,350.52,348.841,0.0
53897.0,STARLINK-5035,PAYLOAD,2022-11-01 04:00:00,15.73173742,0.0001210999999999,53.2161,68.9046,52.0147,350.2458,0.00051196,0.00071765,0.0,0 STARLINK-5035,1 53897U 22119M   22305.16667824  .00071765  00000-0  51196-3 0  9990,2 53897  53.2161  68.9046 0001211  52.0147 350.2458 15.73173742  6293,6727.97,91.535,350.65,349.02,0.0
53897.0,STARLINK-5035,PAYLOAD,2022-11-01 12:00:00,15.732193400000002,0.0001494,53.2162,67.2558,53.467,77.7222,-0.00010657,-0.00015562,0.0,0 STARLINK-5035,1 53897U 22119M   22305.50001157 -.00015562  00000-0 -10657-3 0  9991,2 53897  53.2162  67.2558 0001494  53.4670  77.7222 15.73219340  6344,6727.84,91.532,350.71,348.7,0.0
53897.0,STARLINK-5035,PAYLOAD,2022-11-01 14:00:01,15.73189943,0.0001604,53.2161,66.844,51.222,192.2126,0.00032941,0.00045844,0.0,0 STARLINK-5035,1 53897U 22119M   22305.58334491  .00045844  00000-0  32941-3 0  9993,2 53897  53.2161  66.8440 0001604  51.2220 192.2126 15.73189943  1300,6727.924,91.534,350.86800000000005,348.71,0.0
53897.0,STARLINK-5035,PAYLOAD,2022-11-01 20:00:01,15.73236288,0.0001561,53.2157,65.6074,45.9495,174.1786,5.0608e-05,6.498e-05,0.0,0 STARLINK-5035,1 53897U 22119M   22305.83334491  .00006498  00000-0  50608-4 0  9994,2 53897  53.2157  65.6074 0001561  45.9495 174.1786 15.73236288  6391,6727.792,91.531,350.707,348.607,0.0
53897.0,STARLINK-5035,PAYLOAD,2022-11-01 22:00:00,15.73281546,0.0001509,53.2157,65.1944,43.59,288.7692,-0.00068707,-0.00096287,0.0,0 STARLINK-5035,1 53897U 22119M   22305.91667824 -.00096287  00000-0 -68707-3 0  9997,2 53897  53.2157  65.1944 0001509  43.5900 288.7692 15.73281546  1300,6727.663000000001,91.528,350.543,348.51199999999994,0.0
53897.0,STARLINK-5035,PAYLOAD,2022-11-02 04:00:00,15.73209746,0.0001284999999999,53.2158,63.9557,45.6612,263.4547,-0.00029901,-0.0004239,0.0,0 STARLINK-5035,1 53897U 22119M   22306.16667824 -.00042390  00000-0 -29901-3 0  9994,2 53897  53.2158  63.9557 0001285  45.6612 263.4547 15.73209746  6442,6727.8669999999975,91.533,350.597,348.86800000000005,0.0
53897.0,STARLINK-5035,PAYLOAD,2022-11-02 14:00:01,15.73132557,0.0001578,53.2161,61.8941,42.1616,108.1099,0.00041277,0.0005754,0.0,0 STARLINK-5035,1 53897U 22119M   22306.58334491  .00057540  00000-0  41277-3 0  9992,2 53897  53.2161  61.8941 0001578  42.1616 108.1099 15.73132557  1303,6728.087,91.537,351.014,348.891,0.0
